     2.10           G: GLONASS NAV DATA                     RINEX VERSION / TYPE
teqc  2015Jun23                         20210215 02:25:46UTCPGM / RUN BY / DATE
Linux 2.4.21-27.ELsmp|Opteron|gcc -static|Linux x86_64|=+   COMMENT
  2021     2     7   -4.190951585770D-09                    CORR TO SYSTEM TIME
                                                            END OF HEADER
21 21  2  8 17 45  0.0-1.862542703748D-04-2.728484105319D-12 6.300000000000D+04
   -7.739148925781D+03-2.422301292419D+00 1.862645149231D-09 0.000000000000D+00
    1.375777392578D+04 1.299994468689D+00 3.725290298462D-09 4.000000000000D+00
    2.003558447266D+04-1.830746650696D+00-0.000000000000D+00 0.000000000000D+00
 8 21  2  8 18 15  0.0-5.726795643568D-05-0.000000000000D+00 6.480000000000D+04
    6.322930175781D+03 2.357225418091D-01 9.313225746155D-10 0.000000000000D+00
    2.244010693359D+04 1.409784317017D+00 1.862645149231D-09 6.000000000000D+00
   -1.032384960938D+04 3.190314292908D+00 2.793967723846D-09 0.000000000000D+00
 6 21  2  8 18 15  0.0 1.924270763993D-04 0.000000000000D+00 6.480000000000D+04
   -8.356991699219D+03-1.581583023071D-01 2.793967723846D-09 0.000000000000D+00
    1.382598388672D+04-2.699886322021D+00 2.793967723846D-09-4.000000000000D+00
    1.973853466797D+04 1.820751190186D+00-0.000000000000D+00 0.000000000000D+00
10 21  2  8 18 15  0.0-6.621424108744D-05 0.000000000000D+00 6.480000000000D+04
   -5.068095703125D+02-2.780890464783D+00-0.000000000000D+00 0.000000000000D+00
    1.174299072266D+04-1.364955902100D+00-9.313225746155D-10-7.000000000000D+00
   -2.265949560547D+04-6.384220123291D-01 2.793967723846D-09 0.000000000000D+00
 7 21  2  8 18 15  0.0-4.237797111273D-05 0.000000000000D+00 6.480000000000D+04
   -1.411293457031D+03 1.081209182739D-01 2.793967723846D-09 0.000000000000D+00
    2.472888183594D+04-8.554229736328D-01 2.793967723846D-09 5.000000000000D+00
    6.230865722656D+03 3.434446334839D+00 1.862645149231D-09 0.000000000000D+00
20 21  2  8 18 15  0.0-4.329374060035D-04-0.000000000000D+00 6.480000000000D+04
   -2.212909912109D+04 3.817472457886D-01 1.862645149231D-09 0.000000000000D+00
    1.256015478516D+04 6.633758544922D-02-9.313225746155D-10 2.000000000000D+00
   -2.102287597656D+03-3.594251632690D+00 0.000000000000D+00 0.000000000000D+00
21 21  2  8 18 15  0.0-1.862589269876D-04-2.728484105319D-12 6.480000000000D+04
   -1.150780029297D+04-1.741845130920D+00 2.793967723846D-09 0.000000000000D+00
    1.617829833984D+04 1.345945358276D+00 1.862645149231D-09 4.000000000000D+00
    1.600812060547D+04-2.615213394165D+00-0.000000000000D+00 0.000000000000D+00
 1 21  2  8 18 15  0.0 7.469672709703D-05 0.000000000000D+00 6.651000000000D+04
    1.085669042969D+04 3.003377914429D-01-0.000000000000D+00 0.000000000000D+00
    1.026848632812D+04 2.814354896545D+00 0.000000000000D+00 1.000000000000D+00
   -2.066936669922D+04 1.556902885437D+00 2.793967723846D-09 0.000000000000D+00
 8 21  2  8 18 45  0.0-5.726795643568D-05-0.000000000000D+00 6.660000000000D+04
    6.817333496094D+03 2.730684280396D-01 1.862645149231D-09 0.000000000000D+00
    2.421206835938D+04 5.477142333984D-01 2.793967723846D-09 6.000000000000D+00
   -4.256067871094D+03 3.507780075073D+00 2.793967723846D-09 0.000000000000D+00
 1 21  2  8 18 45  0.0 7.469765841961D-05 0.000000000000D+00 6.660000000000D+04
    1.168781103516D+04 5.944156646729D-01 0.000000000000D+00 0.000000000000D+00
    1.487675097656D+04 2.267096519470D+00 9.313225746155D-10 1.000000000000D+00
   -1.710390283203D+04 2.379026412964D+00 3.725290298462D-09 0.000000000000D+00
10 21  2  8 18 45  0.0-6.621424108744D-05-0.000000000000D+00 6.660000000000D+04
   -5.738381835938D+03-2.984769821167D+00-0.000000000000D+00 0.000000000000D+00
    9.632998046875D+03-9.587993621826D-01-1.862645149231D-09-7.000000000000D+00
   -2.291954101562D+04 3.515739440918D-01 1.862645149231D-09 0.000000000000D+00
 7 21  2  8 18 45  0.0-4.237703979015D-05 0.000000000000D+00 6.660000000000D+04
   -1.442285644531D+03-1.770324707031D-01 3.725290298462D-09 0.000000000000D+00
    2.245594531250D+04-1.644718170166D+00 2.793967723846D-09 5.000000000000D+00
    1.209338671875D+04 3.037385940552D+00 9.313225746155D-10 0.000000000000D+00
20 21  2  8 18 45  0.0-4.329383373260D-04-0.000000000000D+00 6.660000000000D+04
   -2.081308447266D+04 1.046440124512D+00 9.313225746155D-10 0.000000000000D+00
    1.215514599609D+04-5.433006286621D-01-2.793967723846D-09 2.000000000000D+00
   -8.407472656250D+03-3.366103172302D+00 0.000000000000D+00 0.000000000000D+00
21 21  2  8 18 45  0.0-1.862645149231D-04-2.728484105319D-12 6.660000000000D+04
   -1.396036914062D+04-9.793319702148D-01 2.793967723846D-09 0.000000000000D+00
    1.843874218750D+04 1.119414329529D+00 9.313225746155D-10 4.000000000000D+00
    1.074231982422D+04-3.197698593140D+00 0.000000000000D+00 0.000000000000D+00
 8 21  2  8 19 15  0.0-5.726795643568D-05-0.000000000000D+00 6.840000000000D+04
    7.158108398438D+03 6.549835205078D-02 2.793967723846D-09 0.000000000000D+00
    2.440641894531D+04-3.234748840332D-01 1.862645149231D-09 6.000000000000D+00
    2.140863281250D+03 3.553800582886D+00 1.862645149231D-09 0.000000000000D+00
 1 21  2  8 19 15  0.0 7.469858974218D-05 0.000000000000D+00 6.840000000000D+04
    1.287253710938D+04 6.829833984375D-01 1.862645149231D-09 0.000000000000D+00
    1.831657373047D+04 1.531665802002D+00 1.862645149231D-09 1.000000000000D+00
   -1.221546093750D+04 3.017311096191D+00 3.725290298462D-09 0.000000000000D+00
10 21  2  8 19 15  0.0-6.621517241001D-05-0.000000000000D+00 6.840000000000D+04
   -1.107239404297D+04-2.890867233276D+00-9.313225746155D-10 0.000000000000D+00
    8.334716308594D+03-4.806566238403D-01-2.793967723846D-09-7.000000000000D+00
   -2.140935009766D+04 1.315755844116D+00 9.313225746155D-10 0.000000000000D+00
 7 21  2  8 19 15  0.0-4.237610846758D-05 0.000000000000D+00 6.840000000000D+04
   -2.152275878906D+03-6.338510513306D-01 3.725290298462D-09 0.000000000000D+00
    1.892710742188D+04-2.236387252808D+00 1.862645149231D-09 5.000000000000D+00
    1.702495556641D+04 2.406757354736D+00 0.000000000000D+00 0.000000000000D+00
20 21  2  8 19 15  0.0-4.329392686486D-04-0.000000000000D+00 6.840000000000D+04
   -1.850579541016D+04 1.472715377808D+00-0.000000000000D+00 0.000000000000D+00
    1.053690771484D+04-1.264430046082D+00-2.793967723846D-09 2.000000000000D+00
   -1.406388525391D+04-2.878004074097D+00 0.000000000000D+00 0.000000000000D+00
21 21  2  8 19 15  0.0-1.862691715360D-04-2.728484105319D-12 6.840000000000D+04
   -1.505466650391D+04-2.519283294678D-01 2.793967723846D-09 0.000000000000D+00
    2.004827783203D+04 6.279201507568D-01-0.000000000000D+00 4.000000000000D+00
    4.645165527344D+03-3.532894134521D+00 0.000000000000D+00 0.000000000000D+00
22 21  2  8 19 15  0.0-9.684544056654D-05-9.094947017729D-13 6.849000000000D+04
   -3.775858398438D+03-1.623300552368D+00 3.725290298462D-09 0.000000000000D+00
    1.676962939453D+04 2.020480155945D+00 1.862645149231D-09-3.000000000000D+00
    1.888059716797D+04-2.109149932861D+00-0.000000000000D+00 0.000000000000D+00
21 21  2  8 19 45  0.0-1.862747594714D-04-2.728484105319D-12 7.020000000000D+04
   -1.495321777344D+04 3.332386016846D-01 1.862645149231D-09 0.000000000000D+00
    2.057148876953D+04-7.523727416992D-02-1.862645149231D-09 4.000000000000D+00
   -1.811595214844D+03-3.594633102417D+00 0.000000000000D+00 0.000000000000D+00
 1 21  2  8 19 45  0.0 7.469952106476D-05 0.000000000000D+00 7.020000000000D+04
    1.399758105469D+04 5.247592926025D-01 2.793967723846D-09 0.000000000000D+00
    2.034021289062D+04 7.123594284058D-01 1.862645149231D-09 1.000000000000D+00
   -6.381952148438D+03 3.422257423401D+00 2.793967723846D-09 0.000000000000D+00
 8 21  2  8 19 45  0.0-5.726795643568D-05 0.000000000000D+00 7.020000000000D+04
    6.920497558594D+03-3.617353439331D-01 3.725290298462D-09 0.000000000000D+00
    2.311091162109D+04-1.089715003967D+00 1.862645149231D-09 6.000000000000D+00
    8.372684082031D+03 3.325650215149D+00 1.862645149231D-09 0.000000000000D+00
 7 21  2  8 19 45  0.0-4.237610846758D-05 0.000000000000D+00 7.020000000000D+04
   -3.774227539062D+03-1.173528671265D+00 3.725290298462D-09 0.000000000000D+00
    1.456568847656D+04-2.561580657959D+00 9.313225746155D-10 5.000000000000D+00
    2.064637988281D+04 1.591046333313D+00-0.000000000000D+00 0.000000000000D+00
10 21  2  8 19 45  0.0-6.621610373259D-05-0.000000000000D+00 7.020000000000D+04
   -1.596602587891D+04-2.499383926392D+00-1.862645149231D-09 0.000000000000D+00
    7.881198242188D+03-3.796577453613D-02-3.725290298462D-09-7.000000000000D+00
   -1.824324560547D+04 2.179476737976D+00 0.000000000000D+00 0.000000000000D+00
20 21  2  8 19 45  0.0-4.329401999712D-04-0.000000000000D+00 7.020000000000D+04
   -1.567960058594D+04 1.620097160339D+00-1.862645149231D-09 0.000000000000D+00
    7.603379882812D+03-1.985095977783D+00-3.725290298462D-09 2.000000000000D+00
   -1.863435449219D+04-2.167260169983D+00 0.000000000000D+00 0.000000000000D+00
22 21  2  8 19 45  0.0-9.684823453426D-05-9.094947017729D-13 7.020000000000D+04
   -6.096712890625D+03-9.548673629761D-01 3.725290298462D-09 0.000000000000D+00
    2.019623535156D+04 1.738528251648D+00 0.000000000000D+00-3.000000000000D+00
    1.440564355469D+04-2.830695152283D+00 0.000000000000D+00 0.000000000000D+00
21 21  2  8 20 15  0.0-1.862794160843D-04-2.728484105319D-12 7.200000000000D+04
   -1.398889160156D+04 6.966447830200D-01 0.000000000000D+00 0.000000000000D+00
    1.970448583984D+04-8.991756439209D-01-2.793967723846D-09 4.000000000000D+00
   -8.128058105469D+03-3.378010749817D+00 0.000000000000D+00 0.000000000000D+00
 1 21  2  8 20 15  0.0 7.470045238733D-05 0.000000000000D+00 7.200000000000D+04
    1.461426562500D+04 1.223564147949D-01 3.725290298462D-09 0.000000000000D+00
    2.089965380859D+04-7.625198364258D-02 9.313225746155D-10 1.000000000000D+00
   -5.461523437500D+01 3.562428474426D+00 2.793967723846D-09 0.000000000000D+00
